{
    "links": {
        "self": "http://www.neowsapp.com/rest/v1/neo/3736198?api_key=iIulBulltgU6a56xZRHN4H3l9WmuAYTsLGpBGhQ2"
    },
    "id": "3736198",
    "neo_reference_id": "3736198",
    "name": "(2015 XN128)",
    "designation": "2015 XN128",
    "nasa_jpl_url": "http://ssd.jpl.nasa.gov/sbdb.cgi?sstr=3736198",
    "absolute_magnitude_h": 24.4,
    "estimated_diameter": {
        "kilometers": {
            "estimated_diameter_min": 0.0350392641,
            "estimated_diameter_max": 0.0783501764
        },
        "meters": {
            "estimated_diameter_min": 35.0392641108,
            "estimated_diameter_max": 78.3501764334
        },
        "miles": {
            "estimated_diameter_min": 0.0217723826,
            "estimated_diameter_max": 0.0486845275
        },
        "feet": {
            "estimated_diameter_min": 114.9582192654,
            "estimated_diameter_max": 257.0543928497
        }
    },
    "is_potentially_hazardous_asteroid": false,
    "close_approach_data": [
        {
            "close_approach_date": "2011-04-12",
            "close_approach_date_full": "2011-Apr-12 10:43",
            "epoch_date_close_approach": 1302604980000,
            "relative_velocity": {
                "kilometers_per_second": "9.6379214864",
                "kilometers_per_hour": "34696.5173510478",
                "miles_per_hour": "21559.066572933"
            },
            "miss_distance": {
                "astronomical": "0.0216921746",
                "lunar": "8.4382559194",
                "kilometers": "3245103.115828102",
                "miles": "2016413.5738357276"
            },
            "orbiting_body": "Mars"
        },
        {
            "close_approach_date": "2015-12-09",
            "close_approach_date_full": "2015-Dec-09 06:21",
            "epoch_date_close_approach": 1449642060000,
            "relative_velocity": {
                "kilometers_per_second": "3.2624954422",
                "kilometers_per_hour": "11744.9835918593",
                "miles_per_hour": "7297.8760546195"
            },
            "miss_distance": {
                "astronomical": "0.1483997275",
                "lunar": "57.7274939975",
                "kilometers": "22200283.142580425",
                "miles": "13794616.279942865"
            },
            "orbiting_body": "Earth"
        },
        {
            "close_approach_date": "2068-12-09",
            "close_approach_date_full": "2068-Dec-09 12:06",
            "epoch_date_close_approach": 3122280360000,
            "relative_velocity": {
                "kilometers_per_second": "2.7475669727",
                "kilometers_per_hour": "9891.2411017117",
                "miles_per_hour": "6146.0325612275"
            },
            "miss_distance": {
                "astronomical": "0.1295486373",
                "lunar": "50.3944199097",
                "kilometers": "19380200.201482551",
                "miles": "12042297.9964231638"
            },
            "orbiting_body": "Earth"
        },
        {
            "close_approach_date": "2132-12-11",
            "close_approach_date_full": "2132-Dec-11 05:30",
            "epoch_date_close_approach": 5142029400000,
            "relative_velocity": {
                "kilometers_per_second": "2.7919675321",
                "kilometers_per_hour": "10051.0831156246",
                "miles_per_hour": "6245.3521725946"
            },
            "miss_distance": {
                "astronomical": "0.1293084008",
                "lunar": "50.3009679112",
                "kilometers": "19344261.332786296",
                "miles": "12019966.6189350448"
            },
            "orbiting_body": "Earth"
        }
    ],
    "orbital_data": {
        "orbit_id": "10",
        "orbit_determination_date": "2017-04-06 08:30:10",
        "first_observation_date": "2015-12-05",
        "last_observation_date": "2016-01-01",
        "data_arc_in_days": 27,
        "observations_used": 32,
        "orbit_uncertainty": "7",
        "minimum_orbit_intersection": ".129009",
        "jupiter_tisserand_invariant": "4.138",
        "epoch_osculation": "2459000.5",
        "eccentricity": ".3479683318477146",
        "semi_major_axis": "1.695289980573242",
        "inclination": "2.791596797573448",
        "ascending_node_longitude": "139.9381601754963",
        "orbital_period": "806.2401462394623",
        "perihelion_distance": "1.105382754035026",
        "perihelion_argument": "296.7331954422928",
        "aphelion_distance": "2.285197207111457",
        "perihelion_time": "2458982.687651454629",
        "mean_anomaly": "7.953517951497632",
        "mean_motion": ".4465170851130948",
        "equinox": "J2000",
        "orbit_class": {
            "orbit_class_type": "AMO",
            "orbit_class_description": "Near-Earth asteroid orbits similar to that of 1221 Amor",
            "orbit_class_range": "1.017 AU < q (perihelion) < 1.3 AU"
        }
    },
    "is_sentry_object": false
}